STARLINK-36300          
1 68303U 26057K   26085.50002314 -.01035878  37992-3 -13581-2 0  9993
2 68303  97.2821 208.4012 0001087  59.2467  28.8557 16.06968999  2018
STARLINK-36849          
1 68304U 26057L   26085.50002314 -.01042605  38569-3 -13458-2 0  9994
2 68304  97.2820 208.4024 0001220  51.9397  39.2038 16.07219202  1916
STARLINK-36277          
1 68305U 26057M   26085.50002314 -.01054135  39489-3 -13391-2 0  9994
2 68305  97.2818 208.4036 0001128  62.9172  31.3579 16.07478645  2076
STARLINK-36307          
1 68306U 26057N   26085.50002314 -.01035487  38131-3 -13284-2 0  9998
2 68306  97.2820 208.4031 0001043  55.2201  37.2317 16.07318641  2017
STARLINK-36264          
1 68307U 26057P   26085.50002314 -.01022955  37429-3 -12868-2 0  9991
2 68307  97.2819 208.4046 0001144  51.7823  44.4381 16.07630172  2078
STARLINK-37138          
1 68308U 26057Q   26085.50002314 -.00952231  32796-3 -11949-2 0  9991
2 68308  97.2815 208.4047 0001258  62.7084  34.6883 16.07659630  1744
STARLINK-37149          
1 68309U 26057R   26085.50002314 -.01000570  36012-3 -12439-2 0  9993
2 68309  97.2813 208.4053 0001238  63.3525  35.4741 16.07815299  1854
STARLINK-37148          
1 68310U 26057S   26085.50002314 -.01015859  37162-3 -12420-2 0  9998
2 68310  97.2813 208.4066 0001150  51.9508  49.8919 16.08083584  1960
STARLINK-37140          
1 68311U 26057T   26085.50002314 -.01032377  38233-3 -12711-2 0  9996
2 68311  97.2814 208.4062 0001237  53.7118  46.7062 16.07973303  2121
STARLINK-36854          
1 68312U 26057U   26085.50002314 -.01006429  36576-3 -12220-2 0  9999
2 68312  97.2814 208.4074 0001199  55.1793  48.0440 16.08190610  1911
STARLINK-36815          
1 68313U 26057V   26085.50002314 -.01019971  37561-3 -12272-2 0  9998
2 68313  97.2814 208.4082 0001188  50.6817  54.1993 16.08337619  1919
STARLINK-37155          
1 68314U 26057W   26085.50002314 -.00993517  35910-3 -11738-2 0  9997
2 68314  97.2812 208.4097 0001151  50.8696  57.4708 16.08620502  1962
STARLINK-37150          
1 68315U 26057X   26085.25002315 -.00866560  27980-3 -10054-2 0  9996
2 68315  97.2816 208.1348 0001098  54.6391  45.2917 16.08887519  1923
STARLINK-37154          
1 68316U 26057Y   26085.25002315 -.00852181  27275-3 -96219-3 0  9996
2 68316  97.2814 208.1368 0001153  55.7084  48.9359 16.09310910  1823
STARLINK-37139          
1 68317U 26057Z   26085.25002315 -.00861830  27800-3 -98190-3 0  9992
2 68317  97.2814 208.1361 0001209  52.8472  50.1984 16.09171417  1677
STARLINK-37113          
1 68318U 26057AA  26085.25002315 -.00843818  26836-3 -94326-3 0  9994
2 68318  97.2815 208.1375 0001204  50.7930  55.5155 16.09465467  1923
