[{"OBJECT_NAME":"STARLINK-36300","OBJECT_ID":"2026-057K","EPOCH":"2026-03-26T12:00:01.999296","MEAN_MOTION":16.06968999,"ECCENTRICITY":0.0001087,"INCLINATION":97.2821,"RA_OF_ASC_NODE":208.4012,"ARG_OF_PERICENTER":59.2467,"MEAN_ANOMALY":28.8557,"EPHEMERIS_TYPE":0,"CLASSIFICATION_TYPE":"U","NORAD_CAT_ID":68303,"ELEMENT_SET_NO":999,"REV_AT_EPOCH":201,"BSTAR":-0.0013581,"MEAN_MOTION_DOT":-0.01035878,"MEAN_MOTION_DDOT":0.00037992},{"OBJECT_NAME":"STARLINK-36849","OBJECT_ID":"2026-057L","EPOCH":"2026-03-26T12:00:01.999296","MEAN_MOTION":16.07219202,"ECCENTRICITY":0.000122,"INCLINATION":97.282,"RA_OF_ASC_NODE":208.4024,"ARG_OF_PERICENTER":51.9397,"MEAN_ANOMALY":39.2038,"EPHEMERIS_TYPE":0,"CLASSIFICATION_TYPE":"U","NORAD_CAT_ID":68304,"ELEMENT_SET_NO":999,"REV_AT_EPOCH":191,"BSTAR":-0.0013458,"MEAN_MOTION_DOT":-0.01042605,"MEAN_MOTION_DDOT":0.00038569},{"OBJECT_NAME":"STARLINK-36277","OBJECT_ID":"2026-057M","EPOCH":"2026-03-26T12:00:01.999296","MEAN_MOTION":16.07478645,"ECCENTRICITY":0.0001128,"INCLINATION":97.2818,"RA_OF_ASC_NODE":208.4036,"ARG_OF_PERICENTER":62.9172,"MEAN_ANOMALY":31.3579,"EPHEMERIS_TYPE":0,"CLASSIFICATION_TYPE":"U","NORAD_CAT_ID":68305,"ELEMENT_SET_NO":999,"REV_AT_EPOCH":207,"BSTAR":-0.0013391,"MEAN_MOTION_DOT":-0.01054135,"MEAN_MOTION_DDOT":0.00039489},{"OBJECT_NAME":"STARLINK-36307","OBJECT_ID":"2026-057N","EPOCH":"2026-03-26T12:00:01.999296","MEAN_MOTION":16.07318641,"ECCENTRICITY":0.0001043,"INCLINATION":97.282,"RA_OF_ASC_NODE":208.4031,"ARG_OF_PERICENTER":55.2201,"MEAN_ANOMALY":37.2317,"EPHEMERIS_TYPE":0,"CLASSIFICATION_TYPE":"U","NORAD_CAT_ID":68306,"ELEMENT_SET_NO":999,"REV_AT_EPOCH":201,"BSTAR":-0.0013284,"MEAN_MOTION_DOT":-0.01035487,"MEAN_MOTION_DDOT":0.00038131},{"OBJECT_NAME":"STARLINK-36264","OBJECT_ID":"2026-057P","EPOCH":"2026-03-26T12:00:01.999296","MEAN_MOTION":16.07630172,"ECCENTRICITY":0.0001144,"INCLINATION":97.2819,"RA_OF_ASC_NODE":208.4046,"ARG_OF_PERICENTER":51.7823,"MEAN_ANOMALY":44.4381,"EPHEMERIS_TYPE":0,"CLASSIFICATION_TYPE":"U","NORAD_CAT_ID":68307,"ELEMENT_SET_NO":999,"REV_AT_EPOCH":207,"BSTAR":-0.0012868,"MEAN_MOTION_DOT":-0.01022955,"MEAN_MOTION_DDOT":0.00037429},{"OBJECT_NAME":"STARLINK-37138","OBJECT_ID":"2026-057Q","EPOCH":"2026-03-26T12:00:01.999296","MEAN_MOTION":16.0765963,"ECCENTRICITY":0.0001258,"INCLINATION":97.2815,"RA_OF_ASC_NODE":208.4047,"ARG_OF_PERICENTER":62.7084,"MEAN_ANOMALY":34.6883,"EPHEMERIS_TYPE":0,"CLASSIFICATION_TYPE":"U","NORAD_CAT_ID":68308,"ELEMENT_SET_NO":999,"REV_AT_EPOCH":174,"BSTAR":-0.0011949,"MEAN_MOTION_DOT":-0.00952231,"MEAN_MOTION_DDOT":0.00032796},{"OBJECT_NAME":"STARLINK-37149","OBJECT_ID":"2026-057R","EPOCH":"2026-03-26T12:00:01.999296","MEAN_MOTION":16.07815299,"ECCENTRICITY":0.0001238,"INCLINATION":97.2813,"RA_OF_ASC_NODE":208.4053,"ARG_OF_PERICENTER":63.3525,"MEAN_ANOMALY":35.4741,"EPHEMERIS_TYPE":0,"CLASSIFICATION_TYPE":"U","NORAD_CAT_ID":68309,"ELEMENT_SET_NO":999,"REV_AT_EPOCH":185,"BSTAR":-0.0012439,"MEAN_MOTION_DOT":-0.0100057,"MEAN_MOTION_DDOT":0.00036012},{"OBJECT_NAME":"STARLINK-37148","OBJECT_ID":"2026-057S","EPOCH":"2026-03-26T12:00:01.999296","MEAN_MOTION":16.08083584,"ECCENTRICITY":0.000115,"INCLINATION":97.2813,"RA_OF_ASC_NODE":208.4066,"ARG_OF_PERICENTER":51.9508,"MEAN_ANOMALY":49.8919,"EPHEMERIS_TYPE":0,"CLASSIFICATION_TYPE":"U","NORAD_CAT_ID":68310,"ELEMENT_SET_NO":999,"REV_AT_EPOCH":196,"BSTAR":-0.001242,"MEAN_MOTION_DOT":-0.01015859,"MEAN_MOTION_DDOT":0.00037162},{"OBJECT_NAME":"STARLINK-37140","OBJECT_ID":"2026-057T","EPOCH":"2026-03-26T12:00:01.999296","MEAN_MOTION":16.07973303,"ECCENTRICITY":0.0001237,"INCLINATION":97.2814,"RA_OF_ASC_NODE":208.4062,"ARG_OF_PERICENTER":53.7118,"MEAN_ANOMALY":46.7062,"EPHEMERIS_TYPE":0,"CLASSIFICATION_TYPE":"U","NORAD_CAT_ID":68311,"ELEMENT_SET_NO":999,"REV_AT_EPOCH":212,"BSTAR":-0.0012711,"MEAN_MOTION_DOT":-0.01032377,"MEAN_MOTION_DDOT":0.00038233},{"OBJECT_NAME":"STARLINK-36854","OBJECT_ID":"2026-057U","EPOCH":"2026-03-26T12:00:01.999296","MEAN_MOTION":16.0819061,"ECCENTRICITY":0.0001199,"INCLINATION":97.2814,"RA_OF_ASC_NODE":208.4074,"ARG_OF_PERICENTER":55.1793,"MEAN_ANOMALY":48.044,"EPHEMERIS_TYPE":0,"CLASSIFICATION_TYPE":"U","NORAD_CAT_ID":68312,"ELEMENT_SET_NO":999,"REV_AT_EPOCH":191,"BSTAR":-0.001222,"MEAN_MOTION_DOT":-0.01006429,"MEAN_MOTION_DDOT":0.00036576},{"OBJECT_NAME":"STARLINK-36815","OBJECT_ID":"2026-057V","EPOCH":"2026-03-26T12:00:01.999296","MEAN_MOTION":16.08337619,"ECCENTRICITY":0.0001188,"INCLINATION":97.2814,"RA_OF_ASC_NODE":208.4082,"ARG_OF_PERICENTER":50.6817,"MEAN_ANOMALY":54.1993,"EPHEMERIS_TYPE":0,"CLASSIFICATION_TYPE":"U","NORAD_CAT_ID":68313,"ELEMENT_SET_NO":999,"REV_AT_EPOCH":191,"BSTAR":-0.0012272,"MEAN_MOTION_DOT":-0.01019971,"MEAN_MOTION_DDOT":0.00037561},{"OBJECT_NAME":"STARLINK-37155","OBJECT_ID":"2026-057W","EPOCH":"2026-03-26T12:00:01.999296","MEAN_MOTION":16.08620502,"ECCENTRICITY":0.0001151,"INCLINATION":97.2812,"RA_OF_ASC_NODE":208.4097,"ARG_OF_PERICENTER":50.8696,"MEAN_ANOMALY":57.4708,"EPHEMERIS_TYPE":0,"CLASSIFICATION_TYPE":"U","NORAD_CAT_ID":68314,"ELEMENT_SET_NO":999,"REV_AT_EPOCH":196,"BSTAR":-0.0011738,"MEAN_MOTION_DOT":-0.00993517,"MEAN_MOTION_DDOT":0.0003591},{"OBJECT_NAME":"STARLINK-37150","OBJECT_ID":"2026-057X","EPOCH":"2026-03-26T06:00:02.000160","MEAN_MOTION":16.08887519,"ECCENTRICITY":0.00010986,"INCLINATION":97.2816,"RA_OF_ASC_NODE":208.1348,"ARG_OF_PERICENTER":54.6391,"MEAN_ANOMALY":45.2917,"EPHEMERIS_TYPE":0,"CLASSIFICATION_TYPE":"U","NORAD_CAT_ID":68315,"ELEMENT_SET_NO":999,"REV_AT_EPOCH":192,"BSTAR":-0.001005423,"MEAN_MOTION_DOT":-0.0086656,"MEAN_MOTION_DDOT":0.00027979659},{"OBJECT_NAME":"STARLINK-37154","OBJECT_ID":"2026-057Y","EPOCH":"2026-03-26T06:00:02.000160","MEAN_MOTION":16.0931091,"ECCENTRICITY":0.00011531,"INCLINATION":97.2814,"RA_OF_ASC_NODE":208.1368,"ARG_OF_PERICENTER":55.7084,"MEAN_ANOMALY":48.9359,"EPHEMERIS_TYPE":0,"CLASSIFICATION_TYPE":"U","NORAD_CAT_ID":68316,"ELEMENT_SET_NO":999,"REV_AT_EPOCH":182,"BSTAR":-0.0009621941,"MEAN_MOTION_DOT":-0.00852181,"MEAN_MOTION_DDOT":0.00027275186},{"OBJECT_NAME":"STARLINK-37139","OBJECT_ID":"2026-057Z","EPOCH":"2026-03-26T06:00:02.000160","MEAN_MOTION":16.09171417,"ECCENTRICITY":0.00012095,"INCLINATION":97.2814,"RA_OF_ASC_NODE":208.1361,"ARG_OF_PERICENTER":52.8472,"MEAN_ANOMALY":50.1984,"EPHEMERIS_TYPE":0,"CLASSIFICATION_TYPE":"U","NORAD_CAT_ID":68317,"ELEMENT_SET_NO":999,"REV_AT_EPOCH":167,"BSTAR":-0.00098190354,"MEAN_MOTION_DOT":-0.0086183,"MEAN_MOTION_DDOT":0.00027799518},{"OBJECT_NAME":"STARLINK-37113","OBJECT_ID":"2026-057AA","EPOCH":"2026-03-26T06:00:02.000160","MEAN_MOTION":16.09465467,"ECCENTRICITY":0.00012041,"INCLINATION":97.2815,"RA_OF_ASC_NODE":208.1375,"ARG_OF_PERICENTER":50.793,"MEAN_ANOMALY":55.5155,"EPHEMERIS_TYPE":0,"CLASSIFICATION_TYPE":"U","NORAD_CAT_ID":68318,"ELEMENT_SET_NO":999,"REV_AT_EPOCH":192,"BSTAR":-0.00094326073,"MEAN_MOTION_DOT":-0.00843818,"MEAN_MOTION_DDOT":0.00026835603}]
